{"type": "FeatureCollection", "features": [ {"type": "Feature", "properties": {"norad_id": 60453, "name": "LEGION 4", "group": "resource", "lat": 18.872397620373736, "lon": -153.38985571633094, "alt_km": 521.7056478369232, "timestamp": "2025-12-11T20:41:14.745220+00:00", "meta": {"OBJECT_NAME": "LEGION 4", "OBJECT_ID": "2024-146B", "EPOCH": "2025-12-11T13:41:22.476192", "MEAN_MOTION": 15.15804314, "ECCENTRICITY": 0.00095721, "INCLINATION": 45.0386, "RA_OF_ASC_NODE": 48.1484, "ARG_OF_PERICENTER": 305.0716, "MEAN_ANOMALY": 54.9265, "EPHEMERIS_TYPE": 0, "CLASSIFICATION_TYPE": "U", "NORAD_CAT_ID": 60453, "ELEMENT_SET_NO": 999, "REV_AT_EPOCH": 7240, "BSTAR": 0.00042395412, "MEAN_MOTION_DOT": 7.988e-05, "MEAN_MOTION_DDOT": 0}, "tle": {"line1": "1 60453U 24146B   25345.57039903  .00007988  00000+0  42395-3 0  9997", "line2": "2 60453  45.0386  48.1484 0009572 305.0716  54.9265 15.15804314 72406"}}, "geometry": {"type": "Point", "coordinates": [-153.38985571633094, 18.872397620373736]}}, {"type": "Feature", "properties": {"norad_id": 60989, "name": "SENTINEL-2C", "group": "resource", "lat": 14.8916750350543, "lon": -119.34509045928073, "alt_km": 789.4878550111753, "timestamp": "2025-12-11T20:41:14.745229+00:00", "meta": {"OBJECT_NAME": "SENTINEL-2C", "OBJECT_ID": "2024-157A", "EPOCH": "2025-12-11T14:53:04.995744", "MEAN_MOTION": 14.30816926, "ECCENTRICITY": 0.00012008, "INCLINATION": 98.5683, "RA_OF_ASC_NODE": 58.1189, "ARG_OF_PERICENTER": 97.4951, "MEAN_ANOMALY": 262.6368, "EPHEMERIS_TYPE": 0, "CLASSIFICATION_TYPE": "U", "NORAD_CAT_ID": 60989, "ELEMENT_SET_NO": 999, "REV_AT_EPOCH": 6616, "BSTAR": 0.00010782215, "MEAN_MOTION_DOT": 2.39e-06, "MEAN_MOTION_DDOT": 0}, "tle": {"line1": "1 60989U 24157A   25345.62019671  .00000239  00000+0  10782-3 0  9996", "line2": "2 60989  98.5683  58.1189 0001200  97.4951 262.6368 14.30816926 66165"}}, "geometry": {"type": "Point", "coordinates": [-119.34509045928073, 14.8916750350543]}}, {"type": "Feature", "properties": {"norad_id": 61735, "name": "IONOSFERA-M 1", "group": "resource", "lat": 78.95533830216488, "lon": 87.73113320718437, "alt_km": 808.6123570502778, "timestamp": "2025-12-11T20:41:14.745239+00:00", "meta": {"OBJECT_NAME": "IONOSFERA-M 1", "OBJECT_ID": "2024-199A", "EPOCH": "2025-12-11T15:10:14.851776", "MEAN_MOTION": 14.22714096, "ECCENTRICITY": 0.00010156, "INCLINATION": 98.7404, "RA_OF_ASC_NODE": 215.4888, "ARG_OF_PERICENTER": 23.8225, "MEAN_ANOMALY": 336.3, "EPHEMERIS_TYPE": 0, "CLASSIFICATION_TYPE": "U", "NORAD_CAT_ID": 61735, "ELEMENT_SET_NO": 999, "REV_AT_EPOCH": 10103, "BSTAR": 9.2479734e-05, "MEAN_MOTION_DOT": 1.63e-06, "MEAN_MOTION_DDOT": 0}, "tle": {"line1": "1 61735U 24199A   25345.63211634  .00000163  00000+0  92480-4 0  9998", "line2": "2 61735  98.7404 215.4888 0001015  23.8225 336.3000 14.22714096101037"}}, "geometry": {"type": "Point", "coordinates": [87.73113320718437, 78.95533830216488]}}, {"type": "Feature", "properties": {"norad_id": 61736, "name": "IONOSFERA-M 2", "group": "resource", "lat": -77.19463930360408, "lon": -101.77394854521935, "alt_km": 824.6239871048183, "timestamp": "2025-12-11T20:41:14.745249+00:00", "meta": {"OBJECT_NAME": "IONOSFERA-M 2", "OBJECT_ID": "2024-199B", "EPOCH": "2025-12-11T14:18:52.047072", "MEAN_MOTION": 14.22716826, "ECCENTRICITY": 0.00016132, "INCLINATION": 98.7403, "RA_OF_ASC_NODE": 215.3659, "ARG_OF_PERICENTER": 112.1738, "MEAN_ANOMALY": 247.9611, "EPHEMERIS_TYPE": 0, "CLASSIFICATION_TYPE": "U", "NORAD_CAT_ID": 61736, "ELEMENT_SET_NO": 999, "REV_AT_EPOCH": 10415, "BSTAR": 0.00013094707, "MEAN_MOTION_DOT": 2.49e-06, "MEAN_MOTION_DDOT": 0}, "tle": {"line1": "1 61736U 24199B   25345.59643573  .00000249  00000+0  13095-3 0  9994", "line2": "2 61736  98.7403 215.3659 0001613 112.1738 247.9611 14.22716826104151"}}, "geometry": {"type": "Point", "coordinates": [-101.77394854521935, -77.19463930360408]}}, {"type": "Feature", "properties": {"norad_id": 63772, "name": "BIOMASS", "group": "resource", "lat": -29.498631765422477, "lon": 175.48828110287428, "alt_km": 675.0628942416761, "timestamp": "2025-12-11T20:41:14.745260+00:00", "meta": {"OBJECT_NAME": "BIOMASS", "OBJECT_ID": "2025-090A", "EPOCH": "2025-12-11T11:00:17.455968", "MEAN_MOTION": 14.67543861, "ECCENTRICITY": 0.00011798, "INCLINATION": 98.07, "RA_OF_ASC_NODE": 170.4869, "ARG_OF_PERICENTER": 77.026, "MEAN_ANOMALY": 283.1077, "EPHEMERIS_TYPE": 0, "CLASSIFICATION_TYPE": "U", "NORAD_CAT_ID": 63772, "ELEMENT_SET_NO": 999, "REV_AT_EPOCH": 3315, "BSTAR": 0.00042874166, "MEAN_MOTION_DOT": 2.384e-05, "MEAN_MOTION_DDOT": 0}, "tle": {"line1": "1 63772U 25090A   25345.45853537  .00002384  00000+0  42874-3 0  9994", "line2": "2 63772  98.0700 170.4869 0001179  77.0260 283.1077 14.67543861 33151"}}, "geometry": {"type": "Point", "coordinates": [175.48828110287428, -29.498631765422477]}}, {"type": "Feature", "properties": {"norad_id": 64694, "name": "GOSAT-GW (IBUKI GW)", "group": "resource", "lat": 0.11491141572753105, "lon": 101.40703909420783, "alt_km": 671.9496466660867, "timestamp": "2025-12-11T20:41:14.745269+00:00", "meta": {"OBJECT_NAME": "GOSAT-GW (IBUKI GW)", "OBJECT_ID": "2025-141A", "EPOCH": "2025-12-11T14:57:43.318656", "MEAN_MOTION": 14.67571593, "ECCENTRICITY": 0.00015099, "INCLINATION": 98.0421, "RA_OF_ASC_NODE": 281.1566, "ARG_OF_PERICENTER": 83.1067, "MEAN_ANOMALY": 277.0309, "EPHEMERIS_TYPE": 0, "CLASSIFICATION_TYPE": "U", "NORAD_CAT_ID": 64694, "ELEMENT_SET_NO": 999, "REV_AT_EPOCH": 2433, "BSTAR": 0.00044559599, "MEAN_MOTION_DOT": 2.482e-05, "MEAN_MOTION_DDOT": 0}, "tle": {"line1": "1 64694U 25141A   25345.62341804  .00002482  00000+0  44560-3 0  9996", "line2": "2 64694  98.0421 281.1566 0001509  83.1067 277.0309 14.67571593 24332"}}, "geometry": {"type": "Point", "coordinates": [101.40703909420783, 0.11491141572753105]}}, {"type": "Feature", "properties": {"norad_id": 64876, "name": "IONOSFERA-M 3", "group": "resource", "lat": -32.02549195137566, "lon": -46.829636199096726, "alt_km": 826.6059342589588, "timestamp": "2025-12-11T20:41:14.745279+00:00", "meta": {"OBJECT_NAME": "IONOSFERA-M 3", "OBJECT_ID": "2025-155A", "EPOCH": "2025-12-11T14:04:55.695936", "MEAN_MOTION": 14.21441455, "ECCENTRICITY": 0.00022456, "INCLINATION": 98.5781, "RA_OF_ASC_NODE": 307.4855, "ARG_OF_PERICENTER": 61.8295, "MEAN_ANOMALY": 298.311, "EPHEMERIS_TYPE": 0, "CLASSIFICATION_TYPE": "U", "NORAD_CAT_ID": 64876, "ELEMENT_SET_NO": 999, "REV_AT_EPOCH": 1975, "BSTAR": 0.00014401888, "MEAN_MOTION_DOT": 2.72e-06, "MEAN_MOTION_DDOT": 0}, "tle": {"line1": "1 64876U 25155A   25345.58675574  .00000272  00000+0  14402-3 0  9999", "line2": "2 64876  98.5781 307.4855 0002245  61.8295 298.3110 14.21441455 19754"}}, "geometry": {"type": "Point", "coordinates": [-46.829636199096726, -32.02549195137566]}}, {"type": "Feature", "properties": {"norad_id": 64877, "name": "IONOSFERA-M 4", "group": "resource", "lat": 31.1479219536041, "lon": 132.90648647557117, "alt_km": 818.6038849729466, "timestamp": "2025-12-11T20:41:14.745289+00:00", "meta": {"OBJECT_NAME": "IONOSFERA-M 4", "OBJECT_ID": "2025-155B", "EPOCH": "2025-12-11T14:55:25.547808", "MEAN_MOTION": 14.21441707, "ECCENTRICITY": 0.00016074, "INCLINATION": 98.578, "RA_OF_ASC_NODE": 307.4391, "ARG_OF_PERICENTER": 64.5588, "MEAN_ANOMALY": 295.5756, "EPHEMERIS_TYPE": 0, "CLASSIFICATION_TYPE": "U", "NORAD_CAT_ID": 64877, "ELEMENT_SET_NO": 999, "REV_AT_EPOCH": 1975, "BSTAR": 9.3511011e-05, "MEAN_MOTION_DOT": 1.62e-06, "MEAN_MOTION_DDOT": 0}, "tle": {"line1": "1 64877U 25155B   25345.62182347  .00000162  00000+0  93511-4 0  9993", "line2": "2 64877  98.5780 307.4391 0001607  64.5588 295.5756 14.21441707 19750"}}, "geometry": {"type": "Point", "coordinates": [132.90648647557117, 31.1479219536041]}}, {"type": "Feature", "properties": {"norad_id": 64899, "name": "MICROCARB", "group": "resource", "lat": 36.27258912557106, "lon": -112.85272330075064, "alt_km": 640.0203439868301, "timestamp": "2025-12-11T20:41:14.745299+00:00", "meta": {"OBJECT_NAME": "MICROCARB", "OBJECT_ID": "2025-156A", "EPOCH": "2025-12-11T15:08:43.056960", "MEAN_MOTION": 14.72054339, "ECCENTRICITY": 0.001708, "INCLINATION": 98.0027, "RA_OF_ASC_NODE": 60.9944, "ARG_OF_PERICENTER": 148.1137, "MEAN_ANOMALY": 212.1108, "EPHEMERIS_TYPE": 0, "CLASSIFICATION_TYPE": "U", "NORAD_CAT_ID": 64899, "ELEMENT_SET_NO": 999, "REV_AT_EPOCH": 2037, "BSTAR": 0.0001938356, "MEAN_MOTION_DOT": 1.171e-05, "MEAN_MOTION_DDOT": 0}, "tle": {"line1": "1 64899U 25156A   25345.63105390  .00001171  00000+0  19384-3 0  9998", "line2": "2 64899  98.0027  60.9944 0017080 148.1137 212.1108 14.72054339 20372"}}, "geometry": {"type": "Point", "coordinates": [-112.85272330075064, 36.27258912557106]}}, {"type": "Feature", "properties": {"norad_id": 64900, "name": "CO3D 3", "group": "resource", "lat": 32.532540790368245, "lon": 57.464100540658755, "alt_km": 502.94897825075077, "timestamp": "2025-12-11T20:41:14.745309+00:00", "meta": {"OBJECT_NAME": "CO3D 3", "OBJECT_ID": "2025-156B", "EPOCH": "2025-12-11T15:48:15.352992", "MEAN_MOTION": 15.2022542, "ECCENTRICITY": 0.00013506, "INCLINATION": 97.4338, "RA_OF_ASC_NODE": 62.041, "ARG_OF_PERICENTER": 101.9115, "MEAN_ANOMALY": 258.2272, "EPHEMERIS_TYPE": 0, "CLASSIFICATION_TYPE": "U", "NORAD_CAT_ID": 64900, "ELEMENT_SET_NO": 999, "REV_AT_EPOCH": 2104, "BSTAR": 0.00037236678, "MEAN_MOTION_DOT": 8.007e-05, "MEAN_MOTION_DDOT": 0}, "tle": {"line1": "1 64900U 25156B   25345.65851103  .00008007  00000+0  37237-3 0  9995", "line2": "2 64900  97.4338  62.0410 0001350 101.9115 258.2272 15.20225420 21043"}}, "geometry": {"type": "Point", "coordinates": [57.464100540658755, 32.532540790368245]}}]}